start=new Date('2022-05-20T00:00:00.000Z').valueOf();
sats=[{"BSTAR":"-0.00503420000000","OBJECT_NAME":"STARLINK-3929","ARG_OF_PERICENTER":"46.4399","EPOCH":"2022-05-19T22:00:00.999936","TIME_SYSTEM":"UTC","COUNTRY_CODE":"US","OBJECT_TYPE":"PAYLOAD","CENTER_NAME":"EARTH","PERIAPSIS":"328.402","LAUNCH_DATE":"2022-05-13","NORAD_CAT_ID":"52567","MEAN_MOTION_DDOT":"0.0000000000000","APOAPSIS":"330.233","MEAN_MOTION_DOT":"-0.00879163","MEAN_ANOMALY":"103.4438","RA_OF_ASC_NODE":"263.5124","REF_FRAME":"TEME","TLE_LINE1":"1 52567U 22051AL  22139.91667824 -.00879163  00000-0 -50342-2 0  9997","CLASSIFICATION_TYPE":"U","RCS_SIZE":null,"FILE":"3453812","MEAN_ELEMENT_THEORY":"SGP4","DECAY_DATE":null,"REV_AT_EPOCH":"130","MEAN_MOTION":"15.80397486","SITE":"AFWTR","ELEMENT_SET_NO":"999","SEMIMAJOR_AXIS":"6707.453","OBJECT_ID":"2022-051AL","ECCENTRICITY":"0.00013650","TLE_LINE2":"2 52567  53.2172 263.5124 0001365  46.4399 103.4438 15.80397486  1308","PERIOD":"91.116","INCLINATION":"53.2172","GP_ID":"203990963","EPHEMERIS_TYPE":"0"},{"TLE_LINE1":"1 52568U 22051AM  22139.91667824 -.00879176  00000-0 -50110-2 0  9995","CLASSIFICATION_TYPE":"U","FILE":"3453812","RCS_SIZE":null,"MEAN_ELEMENT_THEORY":"SGP4","DECAY_DATE":null,"REV_AT_EPOCH":"130","SITE":"AFWTR","ELEMENT_SET_NO":"999","MEAN_MOTION":"15.80496661","OBJECT_ID":"2022-051AM","SEMIMAJOR_AXIS":"6707.172","ECCENTRICITY":"0.00014550","TLE_LINE2":"2 52568  53.2173 263.5092 0001455  42.3216 109.1723 15.80496661  1302","INCLINATION":"53.2173","PERIOD":"91.111","GP_ID":"203990726","EPHEMERIS_TYPE":"0","BSTAR":"-0.00501100000000","ARG_OF_PERICENTER":"42.3216","OBJECT_NAME":"STARLINK-3930","EPOCH":"2022-05-19T22:00:00.999936","TIME_SYSTEM":"UTC","COUNTRY_CODE":"US","OBJECT_TYPE":"PAYLOAD","CENTER_NAME":"EARTH","LAUNCH_DATE":"2022-05-13","PERIAPSIS":"328.061","NORAD_CAT_ID":"52568","MEAN_MOTION_DDOT":"0.0000000000000","APOAPSIS":"330.013","MEAN_MOTION_DOT":"-0.00879176","MEAN_ANOMALY":"109.1723","RA_OF_ASC_NODE":"263.5092","REF_FRAME":"TEME"},{"TLE_LINE2":"2 52569  53.2172 263.5117 0001454  41.1555 109.0464 15.80417690  1308","ECCENTRICITY":"0.00014540","OBJECT_ID":"2022-051AN","SEMIMAJOR_AXIS":"6707.396","GP_ID":"203990868","EPHEMERIS_TYPE":"0","PERIOD":"91.115","INCLINATION":"53.2172","CLASSIFICATION_TYPE":"U","TLE_LINE1":"1 52569U 22051AN  22139.91667824 -.00879164  00000-0 -50293-2 0  9995","MEAN_MOTION":"15.80417690","SITE":"AFWTR","ELEMENT_SET_NO":"999","REV_AT_EPOCH":"130","DECAY_DATE":null,"FILE":"3453812","RCS_SIZE":null,"MEAN_ELEMENT_THEORY":"SGP4","APOAPSIS":"330.236","MEAN_MOTION_DOT":"-0.00879164","NORAD_CAT_ID":"52569","MEAN_MOTION_DDOT":"0.0000000000000","LAUNCH_DATE":"2022-05-13","PERIAPSIS":"328.285","MEAN_ANOMALY":"109.0464","RA_OF_ASC_NODE":"263.5117","REF_FRAME":"TEME","TIME_SYSTEM":"UTC","EPOCH":"2022-05-19T22:00:00.999936","BSTAR":"-0.00502930000000","ARG_OF_PERICENTER":"41.1555","OBJECT_NAME":"STARLINK-3927","CENTER_NAME":"EARTH","OBJECT_TYPE":"PAYLOAD","COUNTRY_CODE":"US"},{"TLE_LINE2":"2 52570  53.2172 263.5079 0001553  38.5591 113.5362 15.80539054  1303","ECCENTRICITY":"0.00015530","SEMIMAJOR_AXIS":"6707.052","OBJECT_ID":"2022-051AP","GP_ID":"203991207","EPHEMERIS_TYPE":"0","INCLINATION":"53.2172","PERIOD":"91.108","CLASSIFICATION_TYPE":"U","TLE_LINE1":"1 52570U 22051AP  22139.91667824 -.00879250  00000-0 -50014-2 0  9994","SITE":"AFWTR","MEAN_MOTION":"15.80539054","ELEMENT_SET_NO":"999","REV_AT_EPOCH":"130","DECAY_DATE":null,"RCS_SIZE":null,"FILE":"3453812","MEAN_ELEMENT_THEORY":"SGP4","APOAPSIS":"329.959","MEAN_MOTION_DOT":"-0.00879250","MEAN_MOTION_DDOT":"0.0000000000000","NORAD_CAT_ID":"52570","PERIAPSIS":"327.876","LAUNCH_DATE":"2022-05-13","RA_OF_ASC_NODE":"263.5079","MEAN_ANOMALY":"113.5362","REF_FRAME":"TEME","TIME_SYSTEM":"UTC","EPOCH":"2022-05-19T22:00:00.999936","BSTAR":"-0.00500140000000","OBJECT_NAME":"STARLINK-3924","ARG_OF_PERICENTER":"38.5591","CENTER_NAME":"EARTH","OBJECT_TYPE":"PAYLOAD","COUNTRY_CODE":"US"},{"TIME_SYSTEM":"UTC","OBJECT_NAME":"STARLINK-3901","ARG_OF_PERICENTER":"44.5984","BSTAR":"-0.00501540000000","EPOCH":"2022-05-19T22:00:00.999936","CENTER_NAME":"EARTH","OBJECT_TYPE":"PAYLOAD","COUNTRY_CODE":"US","MEAN_MOTION_DOT":"-0.00879242","APOAPSIS":"330.029","LAUNCH_DATE":"2022-05-13","PERIAPSIS":"328.140","MEAN_MOTION_DDOT":"0.0000000000000","NORAD_CAT_ID":"52574","REF_FRAME":"TEME","RA_OF_ASC_NODE":"263.5098","MEAN_ANOMALY":"106.5324","TLE_LINE1":"1 52574U 22051AQ  22139.91667824 -.00879242  00000-0 -50154-2 0  9994","CLASSIFICATION_TYPE":"U","REV_AT_EPOCH":"130","SITE":"AFWTR","MEAN_MOTION":"15.80479947","ELEMENT_SET_NO":"999","MEAN_ELEMENT_THEORY":"SGP4","FILE":"3453812","RCS_SIZE":null,"DECAY_DATE":null,"TLE_LINE2":"2 52574  53.2172 263.5098 0001408  44.5984 106.5324 15.80479947  1304","SEMIMAJOR_AXIS":"6707.219","OBJECT_ID":"2022-051AQ","ECCENTRICITY":"0.00014080","EPHEMERIS_TYPE":"0","GP_ID":"203991158","PERIOD":"91.112","INCLINATION":"53.2172"},{"MEAN_ANOMALY":"111.7423","RA_OF_ASC_NODE":"263.5067","REF_FRAME":"TEME","APOAPSIS":"329.783","MEAN_MOTION_DOT":"-0.00879293","NORAD_CAT_ID":"52575","MEAN_MOTION_DDOT":"0.0000000000000","PERIAPSIS":"327.825","LAUNCH_DATE":"2022-05-13","CENTER_NAME":"EARTH","OBJECT_TYPE":"PAYLOAD","COUNTRY_CODE":"US","TIME_SYSTEM":"UTC","EPOCH":"2022-05-19T22:00:00.999936","BSTAR":"-0.00499260000000","ARG_OF_PERICENTER":"40.9837","OBJECT_NAME":"STARLINK-3920","GP_ID":"203990964","EPHEMERIS_TYPE":"0","PERIOD":"91.106","INCLINATION":"53.2172","TLE_LINE2":"2 52575  53.2172 263.5067 0001460  40.9837 111.7423 15.80579089  1302","ECCENTRICITY":"0.00014600","SEMIMAJOR_AXIS":"6706.939","OBJECT_ID":"2022-051AR","SITE":"AFWTR","MEAN_MOTION":"15.80579089","ELEMENT_SET_NO":"999","REV_AT_EPOCH":"130","DECAY_DATE":null,"MEAN_ELEMENT_THEORY":"SGP4","FILE":"3453812","RCS_SIZE":null,"CLASSIFICATION_TYPE":"U","TLE_LINE1":"1 52575U 22051AR  22139.91667824 -.00879293  00000-0 -49926-2 0  9996"},{"MEAN_MOTION_DOT":"-0.00879251","APOAPSIS":"329.931","LAUNCH_DATE":"2022-05-13","PERIAPSIS":"328.025","NORAD_CAT_ID":"52576","MEAN_MOTION_DDOT":"0.0000000000000","REF_FRAME":"TEME","MEAN_ANOMALY":"108.6472","RA_OF_ASC_NODE":"263.5085","TIME_SYSTEM":"UTC","OBJECT_NAME":"STARLINK-3932","ARG_OF_PERICENTER":"43.1530","BSTAR":"-0.00500670000000","EPOCH":"2022-05-19T22:00:00.999936","OBJECT_TYPE":"PAYLOAD","CENTER_NAME":"EARTH","COUNTRY_CODE":"US","TLE_LINE2":"2 52576  53.2173 263.5085 0001421  43.1530 108.6472 15.80517506  1301","SEMIMAJOR_AXIS":"6707.113","OBJECT_ID":"2022-051AS","ECCENTRICITY":"0.00014210","EPHEMERIS_TYPE":"0","GP_ID":"203990727","INCLINATION":"53.2173","PERIOD":"91.109","TLE_LINE1":"1 52576U 22051AS  22139.91667824 -.00879251  00000-0 -50067-2 0  9999","CLASSIFICATION_TYPE":"U","REV_AT_EPOCH":"130","SITE":"AFWTR","ELEMENT_SET_NO":"999","MEAN_MOTION":"15.80517506","FILE":"3453812","MEAN_ELEMENT_THEORY":"SGP4","RCS_SIZE":null,"DECAY_DATE":null},{"TLE_LINE1":"1 52577U 22051AT  22139.91667824 -.00879292  00000-0 -49878-2 0  9993","CLASSIFICATION_TYPE":"U","REV_AT_EPOCH":"130","MEAN_MOTION":"15.80600261","SITE":"AFWTR","ELEMENT_SET_NO":"999","RCS_SIZE":null,"FILE":"3453812","MEAN_ELEMENT_THEORY":"SGP4","DECAY_DATE":null,"TLE_LINE2":"2 52577  53.2173 263.5060 0001410  44.1738 108.8500 15.80600261  1309","OBJECT_ID":"2022-051AT","SEMIMAJOR_AXIS":"6706.879","ECCENTRICITY":"0.00014100","GP_ID":"203990869","EPHEMERIS_TYPE":"0","PERIOD":"91.105","INCLINATION":"53.2173","TIME_SYSTEM":"UTC","BSTAR":"-0.00498780000000","OBJECT_NAME":"STARLINK-3836","ARG_OF_PERICENTER":"44.1738","EPOCH":"2022-05-19T22:00:00.999936","CENTER_NAME":"EARTH","OBJECT_TYPE":"PAYLOAD","COUNTRY_CODE":"US","APOAPSIS":"329.690","MEAN_MOTION_DOT":"-0.00879292","PERIAPSIS":"327.798","LAUNCH_DATE":"2022-05-13","MEAN_MOTION_DDOT":"0.0000000000000","NORAD_CAT_ID":"52577","MEAN_ANOMALY":"108.8500","RA_OF_ASC_NODE":"263.5060","REF_FRAME":"TEME"},{"MEAN_MOTION_DOT":"-0.00879294","APOAPSIS":"329.819","NORAD_CAT_ID":"52578","MEAN_MOTION_DDOT":"0.0000000000000","LAUNCH_DATE":"2022-05-13","PERIAPSIS":"327.898","REF_FRAME":"TEME","RA_OF_ASC_NODE":"263.5072","MEAN_ANOMALY":"110.0986","TIME_SYSTEM":"UTC","EPOCH":"2022-05-19T22:00:00.999936","OBJECT_NAME":"STARLINK-3833","ARG_OF_PERICENTER":"42.3004","BSTAR":"-0.00499710000000","CENTER_NAME":"EARTH","OBJECT_TYPE":"PAYLOAD","COUNTRY_CODE":"US","TLE_LINE2":"2 52578  53.2173 263.5072 0001432  42.3004 110.0986 15.80559945  1308","ECCENTRICITY":"0.00014320","OBJECT_ID":"2022-051AU","SEMIMAJOR_AXIS":"6706.993","EPHEMERIS_TYPE":"0","GP_ID":"203991208","INCLINATION":"53.2173","PERIOD":"91.107","CLASSIFICATION_TYPE":"U","TLE_LINE1":"1 52578U 22051AU  22139.91667824 -.00879294  00000-0 -49971-2 0  9990","MEAN_MOTION":"15.80559945","SITE":"AFWTR","ELEMENT_SET_NO":"999","REV_AT_EPOCH":"130","DECAY_DATE":null,"FILE":"3453812","RCS_SIZE":null,"MEAN_ELEMENT_THEORY":"SGP4"},{"OBJECT_TYPE":"PAYLOAD","CENTER_NAME":"EARTH","COUNTRY_CODE":"US","TIME_SYSTEM":"UTC","BSTAR":"-0.00497370000000","ARG_OF_PERICENTER":"39.7655","OBJECT_NAME":"STARLINK-3893","EPOCH":"2022-05-19T22:00:00.999936","MEAN_ANOMALY":"114.1736","RA_OF_ASC_NODE":"263.5042","REF_FRAME":"TEME","APOAPSIS":"329.574","MEAN_MOTION_DOT":"-0.00879349","LAUNCH_DATE":"2022-05-13","PERIAPSIS":"327.565","MEAN_MOTION_DDOT":"0.0000000000000","NORAD_CAT_ID":"52579","REV_AT_EPOCH":"130","ELEMENT_SET_NO":"999","SITE":"AFWTR","MEAN_MOTION":"15.80661920","MEAN_ELEMENT_THEORY":"SGP4","FILE":"3453812","RCS_SIZE":null,"DECAY_DATE":null,"TLE_LINE1":"1 52579U 22051AV  22139.91667824 -.00879349  00000-0 -49737-2 0  9992","CLASSIFICATION_TYPE":"U","GP_ID":"203990632","EPHEMERIS_TYPE":"0","INCLINATION":"53.2173","PERIOD":"91.101","TLE_LINE2":"2 52579  53.2173 263.5042 0001498  39.7655 114.1736 15.80661920  1305","OBJECT_ID":"2022-051AV","SEMIMAJOR_AXIS":"6706.705","ECCENTRICITY":"0.00014980"}];
